[
    {
        "Altitude(m)": 706658.5824824176,
        "Argument of Periapsis(deg)": 0.010251109067964361,
        "Eccentricity": 0.0,
        "Inclination(deg)": 45.0,
        "Latitude(deg)": 42.23657228635849,
        "Longitude(deg)": 19.747311787814454,
        "Mean Anomaly(deg)": 108.56169498273273,
        "RAAN(deg)": 4.990323252687617,
        "Satellite Name": "Constellation 1 28",
        "Satellite Number": 28,
        "Semi-Major Axis(m)": 7083131.272910544,
        "Time(s)": 171
    },
    {
        "Altitude(m)": 706654.508077098,
        "Argument of Periapsis(deg)": 0.010311057074209765,
        "Eccentricity": 0.0,
        "Inclination(deg)": 45.0,
        "Latitude(deg)": 42.21805981710521,
        "Longitude(deg)": 19.821138191438834,
        "Mean Anomaly(deg)": 108.62239612298264,
        "RAAN(deg)": 4.990266663522047,
        "Satellite Name": "Constellation 1 28",
        "Satellite Number": 28,
        "Semi-Major Axis(m)": 7083131.272910544,
        "Time(s)": 172
    },
    {
        "Altitude(m)": 706650.4229077388,
        "Argument of Periapsis(deg)": 0.010371005080455171,
        "Eccentricity": 0.0,
        "Inclination(deg)": 45.0,
        "Latitude(deg)": 42.19949438804725,
        "Longitude(deg)": 19.89491904938435,
        "Mean Anomaly(deg)": 108.68309726323253,
        "RAAN(deg)": 4.990210074356478,
        "Satellite Name": "Constellation 1 28",
        "Satellite Number": 28,
        "Semi-Major Axis(m)": 7083131.272910544,
        "Time(s)": 173
    },
    {
        "Altitude(m)": 706646.3269987252,
        "Argument of Periapsis(deg)": 0.010430953086700577,
        "Eccentricity": 0.0,
        "Inclination(deg)": 45.0,
        "Latitude(deg)": 42.180876063938285,
        "Longitude(deg)": 19.96865428816235,
        "Mean Anomaly(deg)": 108.74379840348243,
        "RAAN(deg)": 4.990153485190908,
        "Satellite Name": "Constellation 1 28",
        "Satellite Number": 28,
        "Semi-Major Axis(m)": 7083131.272910544,
        "Time(s)": 174
    },
    {
        "Altitude(m)": 706642.220374504,
        "Argument of Periapsis(deg)": 0.010490901092945983,
        "Eccentricity": 0.0,
        "Inclination(deg)": 45.0,
        "Latitude(deg)": 42.16220490961851,
        "Longitude(deg)": 20.042343834840338,
        "Mean Anomaly(deg)": 108.80449954373233,
        "RAAN(deg)": 4.990096896025339,
        "Satellite Name": "Constellation 1 28",
        "Satellite Number": 28,
        "Semi-Major Axis(m)": 7083131.272910544,
        "Time(s)": 175
    },
    {
        "Altitude(m)": 706638.1030595987,
        "Argument of Periapsis(deg)": 0.010550849099191389,
        "Eccentricity": 0.0,
        "Inclination(deg)": 45.0,
        "Latitude(deg)": 42.143480990013735,
        "Longitude(deg)": 20.115987617041228,
        "Mean Anomaly(deg)": 108.86520068398222,
        "RAAN(deg)": 4.990040306859769,
        "Satellite Name": "Constellation 1 28",
        "Satellite Number": 28,
        "Semi-Major Axis(m)": 7083131.272910544,
        "Time(s)": 176
    },
    {
        "Altitude(m)": 706633.975078598,
        "Argument of Periapsis(deg)": 0.010610797105436795,
        "Eccentricity": 0.0,
        "Inclination(deg)": 45.0,
        "Latitude(deg)": 42.12470437013454,
        "Longitude(deg)": 20.18958556294313,
        "Mean Anomaly(deg)": 108.92590182423213,
        "RAAN(deg)": 4.9899837176942,
        "Satellite Name": "Constellation 1 28",
        "Satellite Number": 28,
        "Semi-Major Axis(m)": 7083131.272910544,
        "Time(s)": 177
    },
    {
        "Altitude(m)": 706629.8364561544,
        "Argument of Periapsis(deg)": 0.0106707451116822,
        "Eccentricity": 0.0,
        "Inclination(deg)": 45.0,
        "Latitude(deg)": 42.10587511507519,
        "Longitude(deg)": 20.263137433181512,
        "Mean Anomaly(deg)": 108.98660296448202,
        "RAAN(deg)": 4.98992712852863,
        "Satellite Name": "Constellation 1 28",
        "Satellite Number": 28,
        "Semi-Major Axis(m)": 7083131.272910544,
        "Time(s)": 178
    },
    {
        "Altitude(m)": 706625.6872169819,
        "Argument of Periapsis(deg)": 0.010730693117927606,
        "Eccentricity": 0.0,
        "Inclination(deg)": 45.0,
        "Latitude(deg)": 42.08699329001383,
        "Longitude(deg)": 20.33664349323725,
        "Mean Anomaly(deg)": 109.04730410473192,
        "RAAN(deg)": 4.989870539363061,
        "Satellite Name": "Constellation 1 28",
        "Satellite Number": 28,
        "Semi-Major Axis(m)": 7083131.272910544,
        "Time(s)": 179
    },
    {
        "Altitude(m)": 706621.5273858751,
        "Argument of Periapsis(deg)": 0.01079064112417301,
        "Eccentricity": 0.0,
        "Inclination(deg)": 45.0,
        "Latitude(deg)": 42.06805896020995,
        "Longitude(deg)": 20.410103504853286,
        "Mean Anomaly(deg)": 109.10800524498183,
        "RAAN(deg)": 4.989813950197491,
        "Satellite Name": "Constellation 1 28",
        "Satellite Number": 28,
        "Semi-Major Axis(m)": 7083131.272910544,
        "Time(s)": 180
    },
    {
        "Altitude(m)": 706617.3569876857,
        "Argument of Periapsis(deg)": 0.010850589130418416,
        "Eccentricity": 0.0,
        "Inclination(deg)": 45.0,
        "Latitude(deg)": 42.04907219100463,
        "Longitude(deg)": 20.483517398422524,
        "Mean Anomaly(deg)": 109.16870638523172,
        "RAAN(deg)": 4.989757361031922,
        "Satellite Name": "Constellation 1 28",
        "Satellite Number": 28,
        "Semi-Major Axis(m)": 7083131.272910544,
        "Time(s)": 181
    },
    {
        "Altitude(m)": 706613.1760473349,
        "Argument of Periapsis(deg)": 0.01091053713666382,
        "Eccentricity": 0.0,
        "Inclination(deg)": 45.0,
        "Latitude(deg)": 42.030033047819465,
        "Longitude(deg)": 20.55688510489027,
        "Mean Anomaly(deg)": 109.22940752548162,
        "RAAN(deg)": 4.989700771866352,
        "Satellite Name": "Constellation 1 28",
        "Satellite Number": 28,
        "Semi-Major Axis(m)": 7083131.272910544,
        "Time(s)": 182
    },
    {
        "Altitude(m)": 706608.9845898051,
        "Argument of Periapsis(deg)": 0.010970485142909228,
        "Eccentricity": 0.0,
        "Inclination(deg)": 45.0,
        "Latitude(deg)": 42.01094159615559,
        "Longitude(deg)": 20.630206555753574,
        "Mean Anomaly(deg)": 109.29010866573152,
        "RAAN(deg)": 4.989644182700783,
        "Satellite Name": "Constellation 1 28",
        "Satellite Number": 28,
        "Semi-Major Axis(m)": 7083131.272910544,
        "Time(s)": 183
    },
    {
        "Altitude(m)": 706604.7826401567,
        "Argument of Periapsis(deg)": 0.011030433149154634,
        "Eccentricity": 0.0,
        "Inclination(deg)": 45.0,
        "Latitude(deg)": 41.991797901593024,
        "Longitude(deg)": 20.703481683060346,
        "Mean Anomaly(deg)": 109.35080980598141,
        "RAAN(deg)": 4.989587593535213,
        "Satellite Name": "Constellation 1 28",
        "Satellite Number": 28,
        "Semi-Major Axis(m)": 7083131.272910544,
        "Time(s)": 184
    },
    {
        "Altitude(m)": 706600.5702235021,
        "Argument of Periapsis(deg)": 0.01109038115540004,
        "Eccentricity": 0.0,
        "Inclination(deg)": 45.0,
        "Latitude(deg)": 41.97260202978933,
        "Longitude(deg)": 20.776710251312164,
        "Mean Anomaly(deg)": 109.41151094623132,
        "RAAN(deg)": 4.989531004369644,
        "Satellite Name": "Constellation 1 28",
        "Satellite Number": 28,
        "Semi-Major Axis(m)": 7083131.272910544,
        "Time(s)": 185
    },
    {
        "Altitude(m)": 706596.3473650358,
        "Argument of Periapsis(deg)": 0.011150329161645444,
        "Eccentricity": 0.0,
        "Inclination(deg)": 45.0,
        "Latitude(deg)": 41.95335404647996,
        "Longitude(deg)": 20.84989252985179,
        "Mean Anomaly(deg)": 109.47221208648122,
        "RAAN(deg)": 4.989474415204074,
        "Satellite Name": "Constellation 1 28",
        "Satellite Number": 28,
        "Semi-Major Axis(m)": 7083131.272910544,
        "Time(s)": 186
    },
    {
        "Altitude(m)": 706592.1140899959,
        "Argument of Periapsis(deg)": 0.01121027716789085,
        "Eccentricity": 0.0,
        "Inclination(deg)": 45.0,
        "Latitude(deg)": 41.934054017475795,
        "Longitude(deg)": 20.923028284279827,
        "Mean Anomaly(deg)": 109.53291322673111,
        "RAAN(deg)": 4.989417826038505,
        "Satellite Name": "Constellation 1 28",
        "Satellite Number": 28,
        "Semi-Major Axis(m)": 7083131.272910544,
        "Time(s)": 187
    },
    {
        "Altitude(m)": 706587.8704237075,
        "Argument of Periapsis(deg)": 0.011270225174136258,
        "Eccentricity": 0.0,
        "Inclination(deg)": 45.0,
        "Latitude(deg)": 41.91470200866331,
        "Longitude(deg)": 20.996117448842732,
        "Mean Anomaly(deg)": 109.59361436698101,
        "RAAN(deg)": 4.989361236872935,
        "Satellite Name": "Constellation 1 28",
        "Satellite Number": 28,
        "Semi-Major Axis(m)": 7083131.272910544,
        "Time(s)": 188
    },
    {
        "Altitude(m)": 706583.6163915566,
        "Argument of Periapsis(deg)": 0.011330173180381662,
        "Eccentricity": 0.0,
        "Inclination(deg)": 45.0,
        "Latitude(deg)": 41.895298086003514,
        "Longitude(deg)": 21.069159958334698,
        "Mean Anomaly(deg)": 109.65431550723092,
        "RAAN(deg)": 4.989304647707366,
        "Satellite Name": "Constellation 1 28",
        "Satellite Number": 28,
        "Semi-Major Axis(m)": 7083131.272910544,
        "Time(s)": 189
    }
]